const data = [
"1 07530U 74089B   22076.88672264 -.00000047  00000+0 -40607-5 0  9997",
"2 07530 101.8962  56.4979 0011992 216.4318 198.1771 12.53653531166237",
"1 14129U 83058B   22073.56261530 -.00000324  00000+0  00000+0 0  9991",
"2 14129  26.4005 111.6536 5984346  56.6187 347.1678  2.05870864263457",
"1 14781U 84021B   22077.19733278  .00000631  00000+0  82837-4 0  9995",
"2 14781  97.6126  68.8293 0006878 260.3264  99.7174 14.83491853 47512",
"1 20442U 90005G   22076.84487990  .00000078  00000+0  45082-4 0  9999",
"2 20442  98.7828  40.3628 0012855  78.7784 281.4844 14.33030573679980",
"1 22825U 93061C   22077.07460658  .00000055  00000+0  39189-4 0  9995",
"2 22825  98.8982 106.1319 0007736 323.8243  36.2414 14.30150740485365",
"1 22826U 93061D   22076.63016238  .00000067  00000+0  43500-4 0  9993",
"2 22826  98.8925 105.5631 0008095 310.4210  49.6265 14.30493426485282",
"1 23439U 94085A   22077.22346519 -.00000037  00000+0  15882-3 0  9994",
"2 23439  64.8148 293.1774 0167030 288.2199  70.0607 11.27570979121207",
"1 24278U 96046B   22077.11393147 -.00000033  00000+0  25973-6 0  9993",
"2 24278  98.5287 113.3216 0350711 160.1347 201.3849 13.53111614263509",
"1 25397U 98043D   22077.27975468  .00000037  00000+0  35883-4 0  9996",
"2 25397  98.8077  27.5588 0001867  45.6480 314.4851 14.23737224230670",
"1 25544U 98067A   22077.48422638  .00006832  00000+0  12996-3 0  9993",
"2 25544  51.6427  65.8013 0004001 281.6849 221.6044 15.49464203331119",
"1 26931U 01043C   22076.94349892  .00000074  00000+0  59777-4 0  9993",
"2 26931  67.0506 294.5945 0007581 276.3159  83.7079 14.30671293 68317",
"1 27607U 02058C   22076.78830280  .00000482  00000+0  87606-4 0  9994",
"2 27607  64.5542 222.3686 0072235 312.6850  46.8181 14.75954610 35056",
"1 27844U 03031E   22076.91130625  .00000201  00000+0  10998-3 0  9998",
"2 27844  98.6817  85.9705 0010047  14.0398 346.1057 14.22396116970857",
"1 27848U 03031J   22076.91639586  .00000166  00000+0  95139-4 0  9993",
"2 27848  98.6865  86.5120 0010191  27.5427 332.6289 14.21960776970679",
"1 27939U 03042A   22077.08584443  .00000763  00000+0  14429-3 0  9991",
"2 27939  98.1737 217.9160 0013971 133.0631 227.1710 14.67183871987641",
"1 28895U 05043F   22076.81281535  .00000736  00000+0  14880-3 0  9993",
"2 28895  98.0904 209.6962 0017830  71.8234 288.4908 14.64142225874001",
"1 30776U 07006E   22076.61188617  .00021883  00000+0  42302-3 0  9996",
"2 30776  35.4326 138.9231 0002695 224.0296 136.0219 15.46849585835320",
"1 32785U 08021C   22077.19562236  .00001553  00000+0  16979-3 0  9996",
"2 32785  97.6479  51.0156 0012947 169.2066 190.9432 14.89170120752971",
"1 32789U 08021G   22076.59400705  .00007491  00000+0  44715-3 0  9991",
"2 32789  97.3497 106.3294 0009081 282.0315  77.9897 15.11367669758040",
"1 32791U 08021J   22077.18944231  .00001633  00000+0  16593-3 0  9992",
"2 32791  97.6033  56.6091 0014169 129.6963 230.5508 14.92051587753668",
"1 32953U 08025A   22077.03092978  .00000021  00000+0  80971-4 0  9994",
"2 32953  82.4992 240.7680 0020125 100.1211 260.2145 12.43107684626977",
"1 33499U 09002H   22077.19456756  .00000540  00000+0  86555-4 0  9991",
"2 33499  98.2321 317.6664 0007817 244.0856 115.9547 14.75852917707218",
"1 35932U 09051B   22077.16373652  .00000500  00000+0  12275-3 0  9992",
"2 35932  98.5805 290.4989 0007075 336.2585  23.8285 14.56721988662846",
"1 35933U 09051C   22076.50219570  .00000467  00000+0  11537-3 0  9990",
"2 35933  98.5750 291.5067 0005597 354.7105   5.4032 14.56755997662781",
"1 35935U 09051E   22077.15102040  .00000387  00000+0  99289-4 0  9999",
"2 35935  98.5852 292.2528 0007883 351.8068   8.2998 14.55876399662626",
"1 36122U 09072B   22076.91506642 -.00000061  00000+0 -46659-4 0  9994",
"2 36122 100.1728  51.6770 0007336 187.0182 173.0830 13.16366694588768",
"1 37839U 11058B   22077.17026205  .00000418  00000+0  80450-4 0  9999",
"2 37839  19.9627   9.1281 0018881 229.8006 267.5305 14.12757200539329",
"1 37841U 11058D   22076.47142240  .00000368  00000+0  56971-4 0  9997",
"2 37841  19.9720  90.9025 0012056  54.0225  99.9082 14.10731684538233",
"1 37855U 11061F   22076.79889897  .00005630  00000+0  26240-3 0  9999",
"2 37855 101.7079 147.6943 0159762 336.4452  22.9502 15.10066670567398",
"1 39090U 13009E   22076.76576156  .00000227  00000+0  94053-4 0  9999",
"2 39090  98.4108 277.2598 0009080 177.4034 182.7200 14.35255642474244",
"1 39134U 13015E   22076.94595728  .00010571  00000+0  41492-3 0  9992",
"2 39134  64.8654   1.5647 0031485 294.7607  65.0248 15.25688663492880",
"1 39135U 13015F   22076.31887546  .00009867  00000+0  43577-3 0  9998",
"2 39135  64.8682  37.6413 0032918 303.8761  55.9237 15.21721447492080",
"1 39136U 13015G   22076.24625041  .00008671  00000+0  39853-3 0  9995",
"2 39136  64.8759  45.5046 0010838 283.8082  76.1839 15.20879672491889",
"1 39417U 13066B   22077.15997377  .00001658  00000+0  20978-3 0  9994",
"2 39417  97.6271  52.8541 0057781 345.6035  14.3530 14.81952178449602",
"1 39430U 13066Q   22077.17058435  .00001876  00000+0  34399-3 0  9998",
"2 39430  97.8148 349.5744 0149493 333.2063  26.1463 14.59936947442979",
"1 39440U 13066AA  22076.85302642  .00001544  00000+0  21652-3 0  9995",
"2 39440  97.7156  38.3409 0080814  68.9992 291.9840 14.76630508446768",
"1 39444U 13066AE  22077.17316578  .00001925  00000+0  23706-3 0  9993",
"2 39444  97.6157  55.2630 0056406 334.3137  25.5277 14.82953107448584",
"1 39446U 13066AG  22076.82977072  .00001686  00000+0  22480-3 0  9990",
"2 39446  97.6750  44.9330 0070009  29.2611 331.2494 14.79188409446913",
"1 39770U 14029E   22077.20412651  .00006169  00000+0  64979-3 0  9990",
"2 39770  97.9292 193.7282 0008869  34.4248 325.7523 14.89696487424070",
"1 40012U 14033C   22076.51727302  .00001133  00000+0  17232-3 0  9997",
"2 40012  97.6635 269.3949 0059108  96.6408 264.1534 14.74637500416433",
"1 40021U 14033M   22077.09553715  .00002253  00000+0  22709-3 0  9995",
"2 40021  98.0037  25.7447 0012371 349.7839  10.3126 14.92129366421072",
"1 40025U 14033R   22076.80700408  .00001572  00000+0  16886-3 0  9992",
"2 40025  97.9543  13.5684 0012431   6.4428 353.6946 14.89984485420116",
"1 40900U 15049B   22077.30016098  .00022183  00000+0  73871-3 0  9991",
"2 40900  97.4086  95.0926 0008434 244.1225 239.9110 15.31106527360644",
"1 40901U 15049C   22077.18229377  .00011089  00000+0  48992-3 0  9993",
"2 40901  97.4628  86.5624 0010791 311.9658 118.1183 15.21842350359566",
"1 40902U 15049D   22077.29350823  .00011735  00000+0  51653-3 0  9993",
"2 40902  97.4706  84.2290 0010508 310.1985 178.7977 15.21958400359554",
"1 40903U 15049E   22077.13347274  .00018187  00000+0  33050-3 0  9992",
"2 40903  97.1962 135.7295 0012840  94.9519 349.8482 15.49507845365107",
"1 40904U 15049F   22077.17228334  .00004172  00000+0  21354-3 0  9995",
"2 40904  97.4953  80.6147 0013453 335.1178  93.3960 15.17098894359027",
"1 40905U 15049G   22077.10182906  .00003832  00000+0  20374-3 0  9996",
"2 40905  97.5130  77.6906 0014590 336.3586  95.7431 15.15796493358772",
"1 40906U 15049H   22077.13007534  .00005976  00000+0  29687-3 0  9990",
"2 40906  97.4945  81.3450 0012869 323.6097 101.0887 15.17971537359060",
"1 40907U 15049J   22077.12161897  .00006848  00000+0  33504-3 0  9995",
"2 40907  97.4936  81.2509 0012035 319.4421 105.6109 15.18460849359106",
"1 40908U 15049K   22077.31320757  .00003339  00000+0  18117-3 0  9994",
"2 40908  97.5161  78.8457 0014800 338.8119 146.3738 15.15158213358681",
"1 40909U 15049L   22077.32287703  .00009760  00000+0  43460-3 0  9992",
"2 40909  97.4677  85.8084 0010864 298.4039 192.4058 15.21610922359545",
"1 40910U 15049M   22077.14162556  .00009936  00000+0  44895-3 0  9990",
"2 40910  97.4762  84.7442 0011676 300.3885 124.3264 15.21097648359291",
"1 40911U 15049N   22077.14032688  .00006686  00000+0  32812-3 0  9998",
"2 40911  97.4922  81.8978 0011978 320.8873 103.6170 15.18362027358995",
"1 40912U 15049P   22077.32064910  .00010727  00000+0  44599-3 0  9998",
"2 40912  97.4423  89.2860 0011343 261.4711 156.2327 15.23912076359867",
"1 40928U 15051D   22077.03425527  .00031227  00000+0  50686-3 0  9993",
"2 40928  97.0515 100.9179 0008849  23.4207  28.4408 15.52638241364024",
"1 40931U 15052B   22075.52240011  .00000096  00000+0 -75845-4 0  9999",
"2 40931   5.9977 111.8896 0013930 291.6971  68.1867 14.76746990349589",
"1 41459U 16025D   22077.25140500  .00014522  00000+0  66403-3 0  9997",
"2 41459  98.1726 235.8640 0152003 218.2970 140.7336 15.10856016323719",
"1 41460U 16025E   22077.02713438  .00026568  00000+0  11087-2 0  9990",
"2 41460  98.1675 241.0741 0136518 197.9516 161.6709 15.15450753324076",
"1 41557U 16033B   22077.21841269  .00011927  00000+0  38562-3 0  9992",
"2 41557  97.3853 174.9610 0011204 349.0897  94.6562 15.32168109323405",
"1 41619U 16040W   22076.66763979  .00009459  00000+0  34442-3 0  9998",
"2 41619  97.2305 129.8702 0011575  86.3490 273.9074 15.28355504306691",
"1 41847U 16066G   22076.73809533  .00000932  00000+0  14841-3 0  9992",
"2 41847  98.5618 141.4736 0365406 124.0806 239.5632 14.38419566281169",
"1 42017U 17008BX  22077.18352827  .00010346  00000+0  34311-3 0  9992",
"2 42017  97.2802 144.7897 0005099 199.2289 160.8761 15.31430498283096",
"1 42759U 17034B   22077.32118140  .00003908  00000+0  24221-3 0  9993",
"2 42759  43.0171 114.7194 0007157  70.9177  37.8874 15.11097707262569",
"1 42761U 17034D   22077.16322269  .00004168  00000+0  25679-3 0  9994",
"2 42761  43.0168 114.4426 0007604  68.9628  34.8271 15.11187969262544",
"1 42778U 17036P   22077.12009963  .00005088  00000+0  20451-3 0  9998",
"2 42778  97.2188 121.4040 0009553 291.7082  68.3139 15.25319089262977",
"1 43017U 17073E   22077.16263204  .00002337  00000+0  18044-3 0  9999",
"2 43017  97.6862 335.0853 0252752 126.3820 236.1000 14.80547840233604",
"1 43137U 18004AC  22076.76437598  .00007041  00000+0  26516-3 0  9991",
"2 43137  97.3765 152.8540 0007277 335.5700  24.5193 15.27386459232346",
